{
    "links": {
        "self": "http://www.neowsapp.com/rest/v1/neo/3170242?api_key=iIulBulltgU6a56xZRHN4H3l9WmuAYTsLGpBGhQ2"
    },
    "id": "3170242",
    "neo_reference_id": "3170242",
    "name": "(2003 YR1)",
    "designation": "2003 YR1",
    "nasa_jpl_url": "http://ssd.jpl.nasa.gov/sbdb.cgi?sstr=3170242",
    "absolute_magnitude_h": 22.2,
    "estimated_diameter": {
        "kilometers": {
            "estimated_diameter_min": 0.096506147,
            "estimated_diameter_max": 0.2157943048
        },
        "meters": {
            "estimated_diameter_min": 96.5061469579,
            "estimated_diameter_max": 215.7943048444
        },
        "miles": {
            "estimated_diameter_min": 0.059966121,
            "estimated_diameter_max": 0.134088323
        },
        "feet": {
            "estimated_diameter_min": 316.6212271853,
            "estimated_diameter_max": 707.9865871058
        }
    },
    "is_potentially_hazardous_asteroid": false,
    "close_approach_data": [
        {
            "close_approach_date": "1992-12-09",
            "close_approach_date_full": "1992-Dec-09 07:20",
            "epoch_date_close_approach": 723885600000,
            "relative_velocity": {
                "kilometers_per_second": "31.1612333651",
                "kilometers_per_hour": "112180.4401144698",
                "miles_per_hour": "69704.5629144604"
            },
            "miss_distance": {
                "astronomical": "0.4649297284",
                "lunar": "180.8576643476",
                "kilometers": "69552497.068318508",
                "miles": "43217917.6367830904"
            },
            "orbiting_body": "Earth"
        },
        {
            "close_approach_date": "1997-12-21",
            "close_approach_date_full": "1997-Dec-21 15:48",
            "epoch_date_close_approach": 882719280000,
            "relative_velocity": {
                "kilometers_per_second": "16.3758361461",
                "kilometers_per_hour": "58953.0101260878",
                "miles_per_hour": "36631.1078752905"
            },
            "miss_distance": {
                "astronomical": "0.1792773327",
                "lunar": "69.7388824203",
                "kilometers": "26819507.111201349",
                "miles": "16664868.9586586562"
            },
            "orbiting_body": "Earth"
        },
        {
            "close_approach_date": "2002-07-18",
            "close_approach_date_full": "2002-Jul-18 00:12",
            "epoch_date_close_approach": 1026951120000,
            "relative_velocity": {
                "kilometers_per_second": "22.9885612199",
                "kilometers_per_hour": "82758.8203915842",
                "miles_per_hour": "51423.1125927596"
            },
            "miss_distance": {
                "astronomical": "0.433505275",
                "lunar": "168.633551975",
                "kilometers": "64851465.77376425",
                "miles": "40296832.24287665"
            },
            "orbiting_body": "Earth"
        },
        {
            "close_approach_date": "2003-12-23",
            "close_approach_date_full": "2003-Dec-23 10:04",
            "epoch_date_close_approach": 1072173840000,
            "relative_velocity": {
                "kilometers_per_second": "19.2025394071",
                "kilometers_per_hour": "69129.1418654516",
                "miles_per_hour": "42954.1603996747"
            },
            "miss_distance": {
                "astronomical": "0.0681207944",
                "lunar": "26.4989890216",
                "kilometers": "10190725.744947928",
                "miles": "6332223.3488122864"
            },
            "orbiting_body": "Earth"
        },
        {
            "close_approach_date": "2009-12-18",
            "close_approach_date_full": "2009-Dec-18 11:57",
            "epoch_date_close_approach": 1261137420000,
            "relative_velocity": {
                "kilometers_per_second": "24.0292498003",
                "kilometers_per_hour": "86505.2992809396",
                "miles_per_hour": "53751.0288782038"
            },
            "miss_distance": {
                "astronomical": "0.2249569818",
                "lunar": "87.5082659202",
                "kilometers": "33653085.318908766",
                "miles": "20911057.5585463308"
            },
            "orbiting_body": "Earth"
        }
    ],
    "orbital_data": {
        "orbit_id": "10",
        "orbit_determination_date": "2017-04-06 09:13:25",
        "first_observation_date": "2003-12-18",
        "last_observation_date": "2003-12-24",
        "data_arc_in_days": 6,
        "observations_used": 42,
        "orbit_uncertainty": "8",
        "minimum_orbit_intersection": ".0661952",
        "jupiter_tisserand_invariant": "6.436",
        "epoch_osculation": "2452993.5",
        "eccentricity": ".4506603607962874",
        "semi_major_axis": ".8988526665428028",
        "inclination": "29.29674855899324",
        "ascending_node_longitude": "86.46564892659171",
        "orbital_period": "311.2656480029554",
        "perihelion_distance": ".4937753995359183",
        "perihelion_argument": "138.0231606909283",
        "aphelion_distance": "1.303929933549687",
        "perihelion_time": "2453069.049530305908",
        "mean_anomaly": "272.6218036438488",
        "mean_motion": "1.156568359887185",
        "equinox": "J2000",
        "orbit_class": {
            "orbit_class_type": "ATE",
            "orbit_class_description": "Near-Earth asteroid orbits similar to that of 2062 Aten",
            "orbit_class_range": "a (semi-major axis) < 1.0 AU; q (perihelion) > 0.983 AU"
        }
    },
    "is_sentry_object": false
}